{"type":"FeatureCollection","features":[{"type":"Feature","properties":{"nombre":"Gral. Belgrano"},"geometry":{"type":"Polygon","coordinates":[[[-58.997810363999974,-35.59555053700001],[-58.98727798499999,-35.593021393000015],[-58.97825241100003,-35.588283538999974],[-58.975002288999974,-35.58924484300002],[-58.972534180000025,-35.59142303499999],[-58.97334289600002,-35.59522628799999],[-58.97083663900003,-35.59633636500001],[-58.96998977700002,-35.599014281999985],[-58.96154403700001,-35.60621261599999],[-58.960750580000024,-35.612129211000024],[-58.95855331400003,-35.61391830399998],[-58.95780563400001,-35.616897583000025],[-58.95327377299998,-35.617286681999985],[-58.95139312700002,-35.62075042700002],[-58.947921753,-35.62282562299998],[-58.942497253,-35.62163925200002],[-58.93758773799999,-35.62310790999999],[-58.928359984999986,-35.621749878],[-58.919868468999994,-35.61198043799999],[-58.916439056,-35.60935974099999],[-58.912719727000024,-35.60852432299998],[-58.91096115099998,-35.60543823199998],[-58.90358734099999,-35.605392456000004],[-58.90564346299999,-35.59993743899997],[-58.910015106,-35.59812164300001],[-58.90946960399998,-35.595638275],[-58.90715408300002,-35.59386062599998],[-58.898269653,-35.59085083000002],[-58.89338302599998,-35.595573425],[-58.88895797700002,-35.59377288799999],[-58.88182449300001,-35.593132018999995],[-58.881347656,-35.597732543999996],[-58.87826919600002,-35.60454177899999],[-58.88328933700001,-35.61035537700002],[-58.88373565699999,-35.61297607400002],[-58.88217925999999,-35.615859984999986],[-58.88394165,-35.61756515500002],[-58.88701629600001,-35.61782455399998],[-58.88843154900002,-35.621055603],[-58.88432693499999,-35.624477386000024],[-58.88358688400001,-35.629478455000026],[-58.880535125999984,-35.63085174600002],[-58.879890441999976,-35.63443374600001],[-58.87628173799999,-35.640701293999996],[-58.87087249799998,-35.644718169999976],[-58.858047484999986,-35.649932861000025],[-58.84696960399998,-35.650211334000005],[-58.84307098400001,-35.651512146000016],[-58.839450836000026,-35.65620422400002],[-58.835758209000005,-35.66612243700001],[-58.83997726400003,-35.673011780000024],[-58.84492111200001,-35.676342009999985],[-58.84337234499998,-35.68120956400003],[-58.83515548700001,-35.68304443400001],[-58.83413314799998,-35.68729019199998],[-58.82927322400002,-35.686172484999986],[-58.81787872299998,-35.68730163599997],[-58.816116333000025,-35.68791961699998],[-58.814048766999974,-35.69110488899997],[-58.805583953999985,-35.689720153999986],[-58.80069351200001,-35.69472885099998],[-58.79411697400002,-35.696609497],[-58.78891754199998,-35.69969940200002],[-58.787010193000015,-35.701931],[-58.787265778000005,-35.706604003999985],[-58.78416061399997,-35.71202087400002],[-58.783954619999975,-35.715068816999974],[-58.779335022,-35.71841430699999],[-58.777770996000015,-35.72413253799999],[-58.77070236200001,-35.72882080099998],[-58.762901306,-35.741455078],[-58.76567077599998,-35.754478455000026],[-58.76013946500001,-35.75684738199999],[-58.749832153,-35.75312423700001],[-58.746215819999975,-35.748481749999996],[-58.741794586000026,-35.73537826500001],[-58.73880004900002,-35.73149490399999],[-58.72511291500001,-35.728027344],[-58.71629333499999,-35.721897125],[-58.707790375,-35.72436904900002],[-58.703647613999976,-35.72388458299997],[-58.69058609000001,-35.72677993799999],[-58.684410094999976,-35.72972869900002],[-58.681602478,-35.72956085200002],[-58.67870712299998,-35.72563934300001],[-58.67006683300002,-35.729770659999986],[-58.66563415500002,-35.727832793999994],[-58.66397476200001,-35.725139618000014],[-58.66119384799998,-35.725067138999975],[-58.658016205000024,-35.73400878899997],[-58.66118240399999,-35.73892593400001],[-58.66047668499999,-35.74215698199998],[-58.65714263900003,-35.744735718000015],[-58.652545928999984,-35.74598693799999],[-58.63523483300003,-35.74329757700002],[-58.63378524799998,-35.74460601800001],[-58.633174896000014,-35.749732971000014],[-58.62805938700001,-35.75127792400002],[-58.61990737899998,-35.74942016599999],[-58.61488342299998,-35.74366378799999],[-58.608032227000024,-35.74119949300001],[-58.597251891999974,-35.749511719],[-58.593715668000016,-35.750091553000004],[-58.587223053,-35.750038147],[-58.583000183000024,-35.74669265699998],[-58.5753479,-35.749565125000004],[-58.56130218499999,-35.744678496999995],[-58.55859375,-35.744590759000005],[-58.553733825999984,-35.747135162000006],[-58.540924071999996,-35.746185303000004],[-58.5389328,-35.744701384999985],[-58.537631988999976,-35.740028381],[-58.536685944,-35.725540161000026],[-58.53373718300003,-35.72382736200001],[-58.52919006299999,-35.724628447999976],[-58.52584457400002,-35.72244644199998],[-58.52394104000001,-35.722724915000015],[-58.519653319999975,-35.725036621000015],[-58.51646804799998,-35.729804993000016],[-58.51630401599999,-35.73756408700001],[-58.511615753,-35.746845244999975],[-58.512111663999974,-35.75070190399998],[-58.50878524799998,-35.75296401999998],[-58.501823425,-35.753398894999975],[-58.497787475999985,-35.75016021699997],[-58.49503326400003,-35.745330810999974],[-58.492851256999984,-35.72641372700002],[-58.48756790200002,-35.714218140000014],[-58.48683166500001,-35.708045959],[-58.48512268100001,-35.70713806200001],[-58.480838775999985,-35.708980559999986],[-58.474376678,-35.70553207400002],[-58.472995758000025,-35.69921875],[-58.46812820399998,-35.69335174600002],[-58.46853256200001,-35.69124221800001],[-58.467086791999975,-35.68912506100003],[-58.467773437999995,-35.686035156],[-58.46611785900001,-35.68504333499999],[-58.46089172400002,-35.687679290999995],[-58.446804047,-35.69969940200002],[-58.442497253,-35.70173645],[-58.43879318199998,-35.70902633700001],[-58.44393920900001,-35.720767975],[-58.44234085099998,-35.72409057599998],[-58.43665695200002,-35.729717255000025],[-58.43645477299998,-35.732883453],[-58.438621521000016,-35.73543548599997],[-58.452289581,-35.740875243999994],[-58.453216553000004,-35.744934081999986],[-58.449375153000005,-35.756675719999976],[-58.45462417599998,-35.759330750000004],[-58.453781128,-35.769432068000015],[-58.448608397999976,-35.770347594999976],[-58.44517517100002,-35.76766586299999],[-58.440475463999974,-35.77123260500002],[-58.43267822299998,-35.77400589000001],[-58.429874419999976,-35.77995681800002],[-58.42145919799998,-35.78578949000001],[-58.420757294,-35.78782653799999],[-58.41662216200001,-35.79131317100001],[-58.41572952299998,-35.794940947999976],[-58.41924667400002,-35.79882049600002],[-58.41840744000001,-35.803169249999996],[-58.41609954799998,-35.805438994999975],[-58.416904449000015,-35.81046676599999],[-58.41568374600001,-35.81361007700002],[-58.409217834,-35.817955016999974],[-58.40778350800002,-35.82032775900001],[-58.39180374099999,-35.817798615000015],[-58.383102416999975,-35.82013702400002],[-58.381061553999984,-35.821815490999995],[-58.37993621800001,-35.82665634199998],[-58.371265411000024,-35.833152771000016],[-58.363319397,-35.83414459199997],[-58.349510193000015,-35.84184265099998],[-58.34292221099997,-35.84360122700002],[-58.34210205099998,-35.850952147999976],[-58.343196868999996,-35.856510162000006],[-58.33703994799998,-35.86260604900002],[-58.328449249000016,-35.8632164],[-58.322395325,-35.86742782599998],[-58.313365936000025,-35.86793136599999],[-58.308105469,-35.86524963400001],[-58.30476760900001,-35.858779906999985],[-58.296283722,-35.85362625099998],[-58.29146957400002,-35.85419082599998],[-58.28844833400001,-35.85692215],[-58.28484725999999,-35.85796356200001],[-58.283344269,-35.860038756999984],[-58.32945632899998,-35.89937210099998],[-58.57224273700001,-36.12067794799998],[-58.75033187899999,-35.984432219999974],[-58.730312346999995,-35.967460631999984],[-58.89194107100002,-35.840370178],[-58.900913238999976,-35.847843169999976],[-58.95761871299999,-35.802970886000026],[-58.974479675,-35.81677246100003],[-58.988563537999994,-35.80553436299999],[-58.985717772999976,-35.803169249999996],[-59.01911163300002,-35.776344299000016],[-59.01582336400003,-35.77348327599998],[-59.10366821299999,-35.703113556000005],[-59.095531463999976,-35.696296691999976],[-59.13679122899998,-35.663406372],[-59.13898086500001,-35.665184021000016],[-59.14330291700003,-35.66046905500002],[-59.14437103300003,-35.657970428],[-59.141975403000004,-35.656044006],[-59.14176559399999,-35.65391540500002],[-59.146202087000006,-35.646587372],[-59.14344787599998,-35.643714905000024],[-59.146408081000004,-35.641780853],[-59.149490356,-35.635337830000026],[-59.146316528,-35.63454818700001],[-59.143413544,-35.62541580200002],[-59.135105133000025,-35.624843596999995],[-59.13361740099998,-35.62422180200002],[-59.13311004600001,-35.621910094999976],[-59.12849044799998,-35.620197296000015],[-59.126590728999986,-35.62096786500001],[-59.12409591699998,-35.619113922],[-59.117790221999996,-35.621105193999995],[-59.11220550500002,-35.619804381999984],[-59.10610199000001,-35.62202835099998],[-59.102245331000006,-35.62176513700001],[-59.101589203,-35.61996841400003],[-59.09765625,-35.61820602400002],[-59.08963012700002,-35.618602753000005],[-59.087711334000005,-35.616519928],[-59.08278655999999,-35.61658859300002],[-59.079875946000016,-35.61452484099999],[-59.08069992100002,-35.60716629000001],[-59.075443268000015,-35.60642623899997],[-59.06898117100002,-35.607879638999975],[-59.060585022,-35.60427093499999],[-59.056575775,-35.60581970200002],[-59.053894043000014,-35.60924911500001],[-59.05010604900002,-35.609699249000016],[-59.046707153,-35.613540649000015],[-59.04307937599998,-35.61168670699999],[-59.037532806,-35.612888336000026],[-59.034816741999975,-35.61085128799999],[-59.03051376299999,-35.60429382299998],[-59.031520844,-35.60255050699999],[-59.02813339199997,-35.59655380200002],[-59.030330658000025,-35.59376525900001],[-59.03032684300001,-35.591323853000006],[-59.027053833000025,-35.59540557899999],[-59.02706527700002,-35.599582672],[-59.024948119999976,-35.60150146500001],[-59.016487122,-35.600833893000015],[-59.006309509000005,-35.594379425],[-58.997810363999974,-35.59555053700001]]]}},{"type":"Feature","properties":{"nombre":"Brandsen"},"geometry":{"type":"Polygon","coordinates":[[[-57.97012710600001,-35.15977478000002],[-57.890201569,-35.22208023100001],[-58.036190033000025,-35.34355545],[-58.03952789300001,-35.341674805000025],[-58.03996658300002,-35.33962249799998],[-58.044864655000026,-35.336463928],[-58.04580688499999,-35.33425903300002],[-58.13986969000001,-35.419399261000024],[-58.18761062599998,-35.38219833400001],[-58.21836090099998,-35.40902328499999],[-58.26136779799998,-35.377277374000016],[-58.24775314300001,-35.36479568499999],[-58.335933684999986,-35.29851913499999],[-58.34641647299998,-35.291816711000024],[-58.34546279900002,-35.290924071999996],[-58.38624954199997,-35.26054382299998],[-58.44704437299998,-35.212162018000015],[-58.41413497899998,-35.18316268900003],[-58.410129547,-35.18645477299998],[-58.35219955399998,-35.135429381999984],[-58.33833694499998,-35.145992278999984],[-58.300960540999995,-35.11458587599998],[-58.27417373700001,-35.091796875],[-58.23590850800002,-35.05605316200001],[-58.24654006999998,-35.04828262299998],[-58.161937713999976,-34.97196960399998],[-58.12033844000001,-35.00427246100003],[-58.177936553999984,-35.05626678499999],[-58.109580994,-35.108463287000006],[-58.10126495399999,-35.101104736000025],[-58.03085327100001,-35.15390777599998],[-58.01852035500002,-35.167541503999985],[-58.07714462299998,-35.218852997],[-58.053695678999986,-35.23555374099999],[-58.018890381000006,-35.20236969000001],[-57.97012710600001,-35.15977478000002]]]}},{"type":"Feature","properties":{"nombre":"Gral. Paz"},"geometry":{"type":"Polygon","coordinates":[[[-58.44358062700002,-35.21517181399997],[-58.38624954199997,-35.26054382299998],[-58.34546279900002,-35.290924071999996],[-58.34641647299998,-35.291816711000024],[-58.335933684999986,-35.29851913499999],[-58.24775314300001,-35.36479568499999],[-58.26136779799998,-35.377277374000016],[-58.21836090099998,-35.40902328499999],[-58.18761062599998,-35.38219833400001],[-58.15494155900001,-35.40827560399998],[-58.19493865999999,-35.440574646000016],[-58.15261840800002,-35.47265625],[-58.20404052700002,-35.518180846999996],[-58.19952011100003,-35.52187347400002],[-58.324886322,-35.627819061000025],[-58.33287811299999,-35.63514328000002],[-58.34236145,-35.65210342400002],[-58.43638992299998,-35.732521056999985],[-58.43719863899997,-35.72886657700002],[-58.44234085099998,-35.72409057599998],[-58.44393920900001,-35.720767975],[-58.43879318199998,-35.70902633700001],[-58.442497253,-35.70173645],[-58.446804047,-35.69969940200002],[-58.46089172400002,-35.687679290999995],[-58.46611785900001,-35.68504333499999],[-58.467773437999995,-35.686035156],[-58.467086791999975,-35.68912506100003],[-58.46853256200001,-35.69124221800001],[-58.46812820399998,-35.69335174600002],[-58.472995758000025,-35.69921875],[-58.474376678,-35.70553207400002],[-58.480838775999985,-35.708980559999986],[-58.48512268100001,-35.70713806200001],[-58.486675262000006,-35.70776748700001],[-58.50297164900002,-35.65613937400002],[-58.50680160500002,-35.65080261200001],[-58.50006485,-35.645057678],[-58.52381896999998,-35.626415253000005],[-58.56887054399999,-35.59600448600003],[-58.553073883000025,-35.579467772999976],[-58.47068786599999,-35.51135253899997],[-58.582187653000005,-35.42154693600003],[-58.540813446000016,-35.38434600800002],[-58.543460846000016,-35.38209915200002],[-58.52419280999999,-35.36590957599998],[-58.571735381999986,-35.328449249000016],[-58.44358062700002,-35.21517181399997]]]}},{"type":"Feature","properties":{"nombre":"Pila"},"geometry":{"type":"Polygon","coordinates":[[[-58.201080321999996,-35.83078002899998],[-58.203956603999984,-35.837879181000005],[-58.202110291,-35.84164428700001],[-58.18940734900002,-35.853527068999995],[-58.188995361000025,-35.86044311500001],[-58.184101105000025,-35.86375045800003],[-58.17197036699997,-35.86723709099999],[-58.16354370099998,-35.86683654799998],[-58.15796279900002,-35.86981201200001],[-58.15672683700001,-35.86568069499998],[-58.154399872,-35.86441421500001],[-58.150444031000006,-35.864528656000005],[-58.147468566999976,-35.86650085399998],[-58.142681122,-35.87896728499999],[-58.148471831999984,-35.883255005000024],[-58.14874649000001,-35.884971619],[-58.145866393999995,-35.889656066999976],[-58.13562393199999,-35.895786284999986],[-58.135498047,-35.897987365999995],[-58.138015747,-35.902843475],[-58.137680053999986,-35.90524291999998],[-58.13333129900002,-35.907562256000006],[-58.13374710099998,-35.910209656000006],[-58.13267898599997,-35.91147995],[-58.12959670999999,-35.91191864000001],[-58.127994537000006,-35.914352416999975],[-58.12087249799998,-35.918170928999984],[-58.111316681000005,-35.91788101200001],[-58.10382461500001,-35.92041778599997],[-58.10240936299999,-35.922367096000016],[-58.102714538999976,-35.926185608000026],[-58.10603714000001,-35.92915344199997],[-58.110198975,-35.930473328000005],[-58.10996246299999,-35.93531799300001],[-58.106781006000006,-35.93766021699997],[-58.092224121000015,-35.93675231899999],[-58.089576721000014,-35.93820953400001],[-58.08832168599997,-35.940120697],[-58.08884811399997,-35.943847656],[-58.09288024900002,-35.94728088400001],[-58.091609955000024,-35.9494133],[-58.06824111899999,-35.95188522299998],[-58.04403686500001,-35.944255828999985],[-58.038188934000004,-35.945835113999976],[-58.035644531,-35.95029449499998],[-58.02375030500002,-35.95004653900003],[-58.02126312299998,-35.94827651999998],[-58.020236968999995,-35.94443130500002],[-58.01777648900003,-35.94372558600003],[-58.016048431,-35.94456481899999],[-58.01462936399997,-35.94944763199999],[-58.008571625,-35.956890106],[-58.008773803999986,-35.9610672],[-58.01610183700001,-35.968936919999976],[-58.02116394000001,-35.97663497899998],[-58.02211761500001,-35.984004974000015],[-58.02643585200002,-35.99381256100003],[-58.03410720800002,-36.00160217299998],[-58.034091949000015,-36.00456619300002],[-58.030712128000005,-36.00643539399999],[-58.02900314300001,-36.00904846200001],[-58.02943420399998,-36.011684418000016],[-58.032768250000004,-36.01223754900002],[-58.032932281,-36.014400481999985],[-58.02818298300002,-36.020236968999995],[-58.028701781999985,-36.025157928],[-58.02564239499998,-36.02870941200001],[-58.02588653599997,-36.03179168700001],[-58.01633453400001,-36.036338806],[-58.011730193999995,-36.042510986000025],[-58.005023956,-36.04189681999998],[-57.966873168999996,-36.06478881800001],[-58.04123306299999,-36.126327515000014],[-58.052562713999976,-36.11812210099998],[-58.09346389799998,-36.15458297700002],[-57.960437775,-36.25273513799999],[-58.189659119,-36.452392578],[-58.101421356,-36.521369934000006],[-58.124675750999984,-36.536109924000016],[-58.134506225999985,-36.54395675699999],[-58.21261596699998,-36.61534500099998],[-58.43764495800002,-36.45204162599998],[-58.578361511000026,-36.34729003899997],[-58.59701156599999,-36.363372803000004],[-58.75072479200003,-36.25030517599998],[-58.78332138100001,-36.22546768199999],[-58.76357650800003,-36.20796585099998],[-58.81976318400001,-36.16570281999998],[-58.815414428999986,-36.16185760500002],[-58.841129303,-36.14167404199998],[-58.83682250999999,-36.13755798300002],[-58.83906555200002,-36.13572311399997],[-58.835903168000016,-36.13286209099999],[-58.83755493199999,-36.127155303999984],[-58.83415985099998,-36.12168121299999],[-58.830013275,-36.120079041],[-58.829116821000014,-36.116695403999984],[-58.830535888999975,-36.113666534000004],[-58.82832336400003,-36.11048507700002],[-58.824489594,-36.10918426500001],[-58.81996917700002,-36.110240936000025],[-58.813922881999986,-36.10677337599998],[-58.80941390999999,-36.10580062899999],[-58.806446075,-36.10239028900003],[-58.80917739900002,-36.100250243999994],[-58.70833206200001,-36.016967772999976],[-58.57224273700001,-36.12067794799998],[-58.32945632899998,-35.89937210099998],[-58.283344269,-35.860038756999984],[-58.28071594199997,-35.86155700699999],[-58.27267074600002,-35.85844802899999],[-58.271560668999996,-35.854614258000026],[-58.27613449099999,-35.845600128],[-58.273864746000015,-35.841205597],[-58.26858520500002,-35.83600235],[-58.26735687299998,-35.833122253],[-58.26768875099998,-35.82866668700001],[-58.26432037400002,-35.822963715000014],[-58.255718231,-35.819156647],[-58.250179290999995,-35.81894683799999],[-58.23940658599997,-35.82652282700002],[-58.22838211099997,-35.82764434799998],[-58.22294235200002,-35.82506942700002],[-58.225959778000004,-35.82079315200002],[-58.221927643000015,-35.81957244900002],[-58.203224181999985,-35.82744979900002],[-58.201080321999996,-35.83078002899998]]]}},{"type":"Feature","properties":{"nombre":"Chascomus"},"geometry":{"type":"Polygon","coordinates":[[[-57.98485565200002,-35.330207825],[-57.977539062000005,-35.338932037000006],[-57.979106903,-35.345142365000015],[-57.97283935500002,-35.34717559799998],[-57.97195434600002,-35.350250243999994],[-57.967567444,-35.35516357400002],[-57.95914840699999,-35.356094359999986],[-57.95281982400002,-35.359531403000005],[-57.95070266699997,-35.36280441299999],[-57.950710297,-35.36706924399999],[-57.94746398900003,-35.372318268000015],[-57.94361495999999,-35.371089934999986],[-57.94344329799998,-35.37358093300003],[-57.939846038999974,-35.373977661000026],[-57.935981749999996,-35.37630462599998],[-57.923789978,-35.37355804399999],[-57.91892623899997,-35.37122726400003],[-57.91472244300002,-35.37686920200002],[-57.91429138199999,-35.38171768199999],[-57.90868377700002,-35.37966155999999],[-57.89521026599999,-35.38102340699999],[-57.88825988799999,-35.38462066699998],[-57.88720321699998,-35.38852691699998],[-57.88889312700002,-35.390644072999976],[-57.888149261000024,-35.39181137100002],[-57.886447906,-35.39017868000002],[-57.88304138199999,-35.389968872],[-57.87841033900003,-35.386062622],[-57.873386383000025,-35.38555526699997],[-57.87215423599997,-35.38700485200002],[-57.87189865099998,-35.392173766999974],[-57.873649596999996,-35.395687103],[-57.872917175,-35.39736938499999],[-57.86580276500001,-35.397884368999996],[-57.862808228000006,-35.39968109099999],[-57.862247466999975,-35.402156830000024],[-57.85987854000001,-35.40301513700001],[-57.85966873199999,-35.40546798700001],[-57.85587692299998,-35.40809631299999],[-57.853309631,-35.41211700399998],[-57.84805679300001,-35.41259384199998],[-57.845874786000024,-35.41418075600001],[-57.84010696399997,-35.413570403999984],[-57.83373260500002,-35.415142059000004],[-57.83178329499998,-35.41894149799998],[-57.832530975,-35.420181274000015],[-57.83042907700002,-35.42096710200002],[-57.83105850200002,-35.42470550500002],[-57.82607650800003,-35.43178558300002],[-57.820571899000015,-35.434608459],[-57.816284180000025,-35.44165420500002],[-57.80499649000001,-35.444561005000025],[-57.80208206200001,-35.443546294999976],[-57.800170897999976,-35.44511413599997],[-57.793666840000014,-35.445602416999975],[-57.78596115099998,-35.443489075],[-57.782073975,-35.441562653000005],[-57.781455994,-35.43984222400002],[-57.773250580000024,-35.43887329099999],[-57.767719269,-35.44337463400001],[-57.76922225999999,-35.44494628899997],[-57.76964187599998,-35.45343017599998],[-57.768005371000015,-35.45578002899998],[-57.76984786999998,-35.457275390999996],[-57.76980590800002,-35.460327147999976],[-57.76693344099999,-35.46041870099998],[-57.767513275,-35.462608337000006],[-57.766216278,-35.46360778799999],[-57.76071166999998,-35.46267700200002],[-57.756092072,-35.45963668799999],[-57.75179290800003,-35.462207793999994],[-57.74869918799999,-35.46630096400003],[-57.74399566699998,-35.468158722],[-57.74720001200001,-35.47253036500001],[-57.745990753,-35.47383117700002],[-57.73664093000002,-35.47382736200001],[-57.732479094999974,-35.47644424399999],[-57.72755050699999,-35.47588729900002],[-57.72423553499999,-35.47877120999999],[-57.719604491999974,-35.48046875],[-57.713180541999975,-35.47970199600002],[-57.711601256999984,-35.478416443000015],[-57.70725250200002,-35.48060607899998],[-57.68877410900001,-35.484561919999976],[-57.68173599199997,-35.481033325],[-57.678249359000006,-35.471744537000006],[-57.672046661000024,-35.46361541700003],[-57.66331863400001,-35.46374130200002],[-57.657848358000024,-35.46168136599999],[-57.649291991999974,-35.466762543000016],[-57.643329619999975,-35.466758728],[-57.63300323499999,-35.470195769999975],[-57.62366104099999,-35.46845626800001],[-57.61868667599998,-35.463989258000026],[-57.60985565200002,-35.461730956999986],[-57.609149933000026,-35.458614349000015],[-57.60177612299998,-35.46039581299999],[-57.594615936000025,-35.45959854099999],[-57.59270477299998,-35.45658493000002],[-57.58561706500001,-35.455974578999985],[-57.584369659000004,-35.45823669399999],[-57.58109664900002,-35.45928192100001],[-57.577594756999986,-35.457839965999995],[-57.56282043499999,-35.457519531],[-57.557895659999986,-35.455978394],[-57.55101013199999,-35.46200561500001],[-57.550510406,-35.46429443400001],[-57.55261611899999,-35.46791076699998],[-57.551773071000014,-35.46942520099998],[-57.547828674000016,-35.467632294],[-57.54707336400003,-35.46942138700001],[-57.543579102000024,-35.47135162400002],[-57.527084350999985,-35.47063064600002],[-57.52415466299999,-35.47124862700002],[-57.52196502700002,-35.47356414799998],[-57.520038605000025,-35.471073150999985],[-57.51404953000002,-35.46915054300001],[-57.511615753,-35.466983794999976],[-57.50738143900003,-35.467998505000025],[-57.501831055000025,-35.466640471999995],[-57.49768829300001,-35.46816635099998],[-57.49730682400002,-35.471233368000014],[-57.49488067599998,-35.472286224000015],[-57.492046356,-35.47005081200001],[-57.49174880999999,-35.46644592299998],[-57.48926162700002,-35.46461486800001],[-57.48892593400001,-35.461437225],[-57.487857819,-35.460933684999986],[-57.48625564600002,-35.463756561000025],[-57.48863220200002,-35.46946334799998],[-57.48670578000002,-35.47219085699999],[-57.48222351099997,-35.47205734300002],[-57.48230361899999,-35.47991943400001],[-57.47766876200001,-35.483573913999976],[-57.48160934399999,-35.48637008700001],[-57.481445312999995,-35.48757934600002],[-57.466617584000005,-35.49057769799998],[-57.462467194,-35.493309021000016],[-57.462280272999976,-35.495002747],[-57.468570709000005,-35.49783706699998],[-57.47028350800002,-35.500553131000004],[-57.462722778,-35.50396728499999],[-57.45397186299999,-35.50384521500001],[-57.450420380000025,-35.50518798799999],[-57.444644928,-35.51014328000002],[-57.44093704199997,-35.510055541999975],[-57.43787384000001,-35.511962890999996],[-57.43557739300002,-35.51877594000001],[-57.436889647999976,-35.52188491800001],[-57.44038772599998,-35.52295684799998],[-57.441181183000026,-35.52453231800001],[-57.44509887700002,-35.52466583299997],[-57.442459106,-35.530029297],[-57.44713974000001,-35.53136062599998],[-57.44673156699997,-35.538532256999986],[-57.45479202299998,-35.543800353999984],[-57.45334243799999,-35.549728394],[-57.45072555500002,-35.55339431800002],[-57.45692443799999,-35.55427551299999],[-57.45943832400002,-35.55760574300001],[-57.45814514199998,-35.55997085600001],[-57.453910828000005,-35.56009292599998],[-57.452468872,-35.56180954000001],[-57.453010559000006,-35.56552124000001],[-57.456134796000015,-35.56977081299999],[-57.45450210600001,-35.57796096800001],[-57.458255768000015,-35.585700988999974],[-57.45973968499999,-35.58691024799998],[-57.46269989000001,-35.58530425999999],[-57.46594619799998,-35.58909606899999],[-57.463859558000024,-35.594703674000016],[-57.45980835,-35.598354340000014],[-57.45374679600002,-35.599540709999985],[-57.453227997,-35.601985931],[-57.44963836699998,-35.60472869900002],[-57.44815063499999,-35.609760284000004],[-57.42742156999998,-35.61559295699999],[-57.426845550999985,-35.616695403999984],[-57.429801940999994,-35.62126922599998],[-57.42907333400001,-35.625267028999986],[-57.433799744,-35.62614822400002],[-57.435089111000025,-35.62380218499999],[-57.437137603999986,-35.62369918799999],[-57.439479828,-35.63243865999999],[-57.439338684000006,-35.637447356999985],[-57.427753447999976,-35.64453125],[-57.42469787599998,-35.643066406],[-57.416744231999985,-35.645030975],[-57.413406372,-35.651302337999994],[-57.41631698600003,-35.653526306],[-57.418205261000026,-35.652946471999996],[-57.418689728000004,-35.654758453],[-57.414825439000026,-35.659473418999994],[-57.411022186000025,-35.65823364300002],[-57.41110610999999,-35.66460418700001],[-57.40810775800003,-35.66517257700002],[-57.40518188499999,-35.66242218000002],[-57.40343856800001,-35.663028716999975],[-57.403835297,-35.664936065999996],[-57.40123748799999,-35.665222168000014],[-57.402202606,-35.666954041],[-57.39928436299999,-35.666172028000005],[-57.39567184399999,-35.667526244999976],[-57.39482879600001,-35.669910431000005],[-57.395923615000015,-35.671337128000005],[-57.39414215099998,-35.672729491999974],[-57.387836456,-35.67022323600003],[-57.386020659999986,-35.673370361000025],[-57.38817596400003,-35.6746521],[-57.386684418000016,-35.67724990800002],[-57.38351440399998,-35.67564392100002],[-57.38507843000002,-35.67927932700002],[-57.38078689600002,-35.67935562100001],[-57.37895584099999,-35.677928925],[-57.38000869799998,-35.67674636800001],[-57.378959656000006,-35.676006316999974],[-57.37634658799999,-35.67924118000002],[-57.37459945699999,-35.67947387700002],[-57.373554230000025,-35.676734924000016],[-57.37711334199997,-35.675689696999996],[-57.37541580200002,-35.67425918599997],[-57.366928100999985,-35.677272797],[-57.370296478,-35.67839431800002],[-57.36894989000001,-35.680011749000016],[-57.37098312400002,-35.680908203],[-57.370632172,-35.683567047],[-57.37481689499998,-35.68294143700001],[-57.37348556500001,-35.68550109900002],[-57.37018966699998,-35.68586730999999],[-57.370269775,-35.687503815000014],[-57.372390747,-35.68807983400001],[-57.37507247899998,-35.6860466],[-57.37664794900002,-35.687725066999974],[-57.374897003,-35.69090270999999],[-57.377346038999974,-35.691200256],[-57.37840270999999,-35.68904495200002],[-57.38037490800002,-35.689250946000016],[-57.38131332400002,-35.69168090800002],[-57.37874603300003,-35.694026947],[-57.38352203400001,-35.69445419300001],[-57.38356018100001,-35.695865631000004],[-57.38035965,-35.697093963999976],[-57.38011932400002,-35.699691771999994],[-57.377952575999984,-35.70184326200001],[-57.380599975999985,-35.70389938400001],[-57.378932953,-35.709323883000025],[-57.382148743000016,-35.711994171000015],[-57.377555846999996,-35.71328735399999],[-57.374996184999986,-35.709976196000014],[-57.372787475999985,-35.712947844999974],[-57.37084579499998,-35.71038818400001],[-57.36694717400002,-35.712097168000014],[-57.36413192700002,-35.70866775500002],[-57.358047484999986,-35.710178375],[-57.356201172,-35.712402344],[-57.34720311199999,-35.71657207800001],[-57.345703125,-35.71868896500001],[-57.35382080099998,-35.733581543000014],[-57.362128688999974,-35.74381275500002],[-57.364662169999974,-35.74366378799999],[-57.367649078,-35.7460289],[-57.38430023199999,-35.74487686200001],[-57.38584136999998,-35.742149353],[-57.38489150999999,-35.73807144199998],[-57.387359618999994,-35.736843109000006],[-57.39776611299999,-35.73815536500001],[-57.39676284799998,-35.742996215999995],[-57.399818419999974,-35.74554824799998],[-57.402355193999995,-35.74521636999998],[-57.405620575,-35.74242782599998],[-57.409584044999974,-35.742813109999986],[-57.411087036000026,-35.74547195399998],[-57.41060256999998,-35.748168944999975],[-57.40822601299999,-35.749965668000016],[-57.40717697100001,-35.75283431999998],[-57.402587890999996,-35.755924225],[-57.40252685500002,-35.75774765],[-57.40399551399997,-35.758968353],[-57.409038544,-35.758899688999975],[-57.409988403,-35.76459503199999],[-57.40822601299999,-35.769023894999975],[-57.411617278999984,-35.76966857899998],[-57.41407775900001,-35.764560699000015],[-57.416915894,-35.764202118000014],[-57.41799163799999,-35.770069121999995],[-57.424320221000016,-35.77570343000002],[-57.42881011999998,-35.77624130200002],[-57.428871155000024,-35.77798843400001],[-57.425098418999994,-35.77991867100002],[-57.424354553,-35.783000946000016],[-57.42538070699999,-35.78484725999999],[-57.42837142899998,-35.78452300999999],[-57.428733825999984,-35.780632018999995],[-57.43056869499998,-35.781238556000005],[-57.43131256100003,-35.784809112999994],[-57.433555603,-35.78506851200001],[-57.43655776999998,-35.7827034],[-57.44142150900001,-35.782810211000026],[-57.44254684399999,-35.77885818499999],[-57.44490432700002,-35.77746963499999],[-57.44701385500002,-35.777580261000026],[-57.44983291599999,-35.780624390000014],[-57.45529556299999,-35.776996612999994],[-57.46033096299999,-35.77950668300002],[-57.45887756299999,-35.78209686299999],[-57.45462417599998,-35.78263855],[-57.45652008100001,-35.78767395],[-57.45835113499999,-35.788993834999985],[-57.46110153199999,-35.78804397599998],[-57.45809173599997,-35.784896850999985],[-57.45937347400002,-35.783637999999996],[-57.465782166,-35.786739349000015],[-57.467350006000004,-35.78552246100003],[-57.46865463300003,-35.780750275],[-57.476169586000026,-35.78321838400001],[-57.47635269199998,-35.78835296599999],[-57.480026244999976,-35.789760590000014],[-57.480411530000026,-35.79264068600003],[-57.48269653300002,-35.794807434000006],[-57.48200607299998,-35.79740905800003],[-57.47779083299997,-35.798583984000004],[-57.47774124099999,-35.79989624000001],[-57.480266571000016,-35.801734924000016],[-57.48495101899999,-35.809146881000004],[-57.48997116100003,-35.81145095800002],[-57.492046356,-35.81434631299999],[-57.492431640999996,-35.82210159300001],[-57.490238190000014,-35.82586669900002],[-57.49908447299998,-35.827529906999985],[-57.50621032700002,-35.82406997700002],[-57.51250076299999,-35.82498550399998],[-57.51655960099998,-35.829738616999975],[-57.52394104000001,-35.829975128],[-57.52492523199999,-35.837955475],[-57.53103256200001,-35.84262466400003],[-57.54629135099998,-35.84737777700002],[-57.550357819,-35.844097137000006],[-57.555202484000006,-35.84415054300001],[-57.56128311200001,-35.85135269199998],[-57.56238937400002,-35.85474395799997],[-57.567134856999985,-35.856960297],[-57.573657990000015,-35.855926513999975],[-57.57725524900002,-35.847660065000014],[-57.57687377899998,-35.84396743799999],[-57.57978439300001,-35.839702606],[-57.579372406000005,-35.836856841999975],[-57.587718963999976,-35.830879211000024],[-57.60318756100003,-35.83228683499999],[-57.606407166,-35.831134796000015],[-57.61358261100003,-35.833301543999994],[-57.623638153,-35.832393646000014],[-57.63760375999999,-35.836936950999984],[-57.648384093999994,-35.836936950999984],[-57.65216064499998,-35.83900070200002],[-57.65339279199998,-35.84154891999998],[-57.65362167400002,-35.848217009999985],[-57.65702819799998,-35.85025787400002],[-57.66233062700002,-35.84577560399998],[-57.66342544600002,-35.842693328999985],[-57.67409133899997,-35.83797836299999],[-57.681846619,-35.83164215099998],[-57.686935425,-35.83180236800001],[-57.69394683799999,-35.83560180699999],[-57.70140075699999,-35.835231781000005],[-57.70509338400001,-35.83243179300001],[-57.707725525,-35.83249664300001],[-57.71195602400002,-35.83687973000002],[-57.713531493999994,-35.842056274000015],[-57.71184539799998,-35.856559753],[-57.71347808799999,-35.86427688600003],[-57.71336746200001,-35.87273788499999],[-57.72220993000002,-35.878177643000015],[-57.723857880000025,-35.882003784000005],[-57.72895431500001,-35.88645553600003],[-57.733474731,-35.89702606200001],[-57.73063278199999,-35.904556274000015],[-57.72478485099998,-35.90942001299999],[-57.723449706999986,-35.912635803],[-57.724700928000004,-35.91756820699999],[-57.72961044300001,-35.92059326200001],[-57.73057937599998,-35.92252349900002],[-57.73731613199999,-35.92560577400002],[-57.756900787000006,-35.92149734499998],[-57.763244628999985,-35.92210388199999],[-57.76818466200001,-35.92537307700002],[-57.774120331000006,-35.934482574000015],[-57.778511046999995,-35.935447693000015],[-57.79103088400001,-35.933979034000004],[-57.79970550500002,-35.93477249099999],[-57.83287429799998,-35.943584441999974],[-57.836475371999995,-35.94703674300001],[-57.84119033799999,-35.95808029199998],[-57.84433364900002,-35.960910797],[-57.86369705200002,-35.965301513999975],[-57.869670868000014,-35.968730927000024],[-57.89285278300002,-35.97564697299998],[-57.89815902700002,-35.97320556599999],[-57.904476165999995,-35.974006653000004],[-57.908088684000006,-35.98637390099998],[-57.91280365,-35.99136734000001],[-57.918212890999996,-35.99179840099998],[-57.928535461000024,-35.989147186000025],[-57.936477661000026,-35.990722656],[-57.93972778300002,-35.99269866899999],[-57.94309616100003,-35.99774169900002],[-57.94500350999999,-36.00961303700001],[-57.95156097400002,-36.018276215000014],[-57.95463943499999,-36.02509307899999],[-57.95829772899998,-36.028656006000006],[-57.960750580000024,-36.02928924600002],[-57.967884063999975,-36.027221680000025],[-57.9739151,-36.031223297],[-57.98427963300003,-36.02845001200001],[-57.98594665500002,-36.025100708000025],[-57.983173369999975,-36.02339172400002],[-57.98316192599998,-36.021678925],[-57.986564636000026,-36.019622803000004],[-57.990032196000016,-36.02291870099998],[-57.99246597299998,-36.02928161599999],[-57.99876403799999,-36.03437805200002],[-58.004291534000004,-36.041503906],[-58.00753402700002,-36.042697906],[-58.011730193999995,-36.042510986000025],[-58.01633453400001,-36.036338806],[-58.02588653599997,-36.03179168700001],[-58.02564239499998,-36.02870941200001],[-58.028701781999985,-36.025157928],[-58.02818298300002,-36.020236968999995],[-58.032932281,-36.014400481999985],[-58.032768250000004,-36.01223754900002],[-58.02943420399998,-36.011684418000016],[-58.02900314300001,-36.00904846200001],[-58.034553528000004,-36.003097534000005],[-58.024406433000024,-35.99001312299998],[-58.02078247100002,-35.97592544600002],[-58.00808715800002,-35.959514618000014],[-58.008571625,-35.956890106],[-58.01462936399997,-35.94944763199999],[-58.016048431,-35.94456481899999],[-58.019870758000025,-35.94410705600001],[-58.02126312299998,-35.94827651999998],[-58.02375030500002,-35.95004653900003],[-58.035644531,-35.95029449499998],[-58.038188934000004,-35.945835113999976],[-58.04403686500001,-35.944255828999985],[-58.06824111899999,-35.95188522299998],[-58.091609955000024,-35.9494133],[-58.09288024900002,-35.94728088400001],[-58.08884811399997,-35.943847656],[-58.08832168599997,-35.940120697],[-58.089576721000014,-35.93820953400001],[-58.092224121000015,-35.93675231899999],[-58.106781006000006,-35.93766021699997],[-58.10996246299999,-35.93531799300001],[-58.110198975,-35.930473328000005],[-58.10603714000001,-35.92915344199997],[-58.102714538999976,-35.926185608000026],[-58.10240936299999,-35.922367096000016],[-58.10382461500001,-35.92041778599997],[-58.111316681000005,-35.91788101200001],[-58.12087249799998,-35.918170928999984],[-58.127994537000006,-35.914352416999975],[-58.12959670999999,-35.91191864000001],[-58.13267898599997,-35.91147995],[-58.13374710099998,-35.910209656000006],[-58.13333129900002,-35.907562256000006],[-58.137680053999986,-35.90524291999998],[-58.138015747,-35.902843475],[-58.135498047,-35.897987365999995],[-58.13562393199999,-35.895786284999986],[-58.145866393999995,-35.889656066999976],[-58.14874649000001,-35.884971619],[-58.148471831999984,-35.883255005000024],[-58.142681122,-35.87896728499999],[-58.146774291999975,-35.867240906000006],[-58.150444031000006,-35.864528656000005],[-58.154399872,-35.86441421500001],[-58.15672683700001,-35.86568069499998],[-58.15796279900002,-35.86981201200001],[-58.16354370099998,-35.86683654799998],[-58.17197036699997,-35.86723709099999],[-58.18587493899997,-35.862655640000014],[-58.188995361000025,-35.86044311500001],[-58.18940734900002,-35.853527068999995],[-58.199790955000026,-35.84482193000002],[-58.20378494300002,-35.83859252899998],[-58.20376205399998,-35.83413314799998],[-58.201080321999996,-35.83078002899998],[-58.205234528000005,-35.826095581000004],[-58.22378158599997,-35.819629668999994],[-58.225959778000004,-35.82079315200002],[-58.22294235200002,-35.82506942700002],[-58.227523803999986,-35.82746505699998],[-58.233951569,-35.827857971000014],[-58.23940658599997,-35.82652282700002],[-58.248985291,-35.819278716999975],[-58.255718231,-35.819156647],[-58.26469039900002,-35.823352813999975],[-58.26768875099998,-35.82866668700001],[-58.26735687299998,-35.833122253],[-58.26858520500002,-35.83600235],[-58.273864746000015,-35.841205597],[-58.27613449099999,-35.845600128],[-58.271560668999996,-35.854614258000026],[-58.27267074600002,-35.85844802899999],[-58.28146362299998,-35.861598969],[-58.28445434600002,-35.85824966400003],[-58.28844833400001,-35.85692215],[-58.29146957400002,-35.85419082599998],[-58.29717636100003,-35.853782653999986],[-58.30582046500001,-35.85979461699998],[-58.308105469,-35.86524963400001],[-58.31031799300001,-35.866825103999986],[-58.313365936000025,-35.86793136599999],[-58.321830750000004,-35.86753082299998],[-58.328449249000016,-35.8632164],[-58.33703994799998,-35.86260604900002],[-58.34214019799998,-35.85810852100002],[-58.343196868999996,-35.856510162000006],[-58.34210205099998,-35.850952147999976],[-58.34292221099997,-35.84360122700002],[-58.349510193000015,-35.84184265099998],[-58.363319397,-35.83414459199997],[-58.371265411000024,-35.833152771000016],[-58.37993621800001,-35.82665634199998],[-58.381061553999984,-35.821815490999995],[-58.383102416999975,-35.82013702400002],[-58.39180374099999,-35.817798615000015],[-58.40715789799998,-35.82043075600001],[-58.41338729900002,-35.815765381000006],[-58.41659927400002,-35.811737060999974],[-58.41609954799998,-35.805438994999975],[-58.41840744000001,-35.803169249999996],[-58.41924667400002,-35.79882049600002],[-58.41572952299998,-35.794940947999976],[-58.41662216200001,-35.79131317100001],[-58.420757294,-35.78782653799999],[-58.42145919799998,-35.78578949000001],[-58.429874419999976,-35.77995681800002],[-58.43267822299998,-35.77400589000001],[-58.440475463999974,-35.77123260500002],[-58.44517517100002,-35.76766586299999],[-58.448608397999976,-35.770347594999976],[-58.453781128,-35.769432068000015],[-58.45462417599998,-35.759330750000004],[-58.449375153000005,-35.756675719999976],[-58.453216553000004,-35.744934081999986],[-58.452289581,-35.740875243999994],[-58.43741607700002,-35.73455047599998],[-58.43638992299998,-35.732521056999985],[-58.34236145,-35.65210342400002],[-58.33287811299999,-35.63514328000002],[-58.26909255999999,-35.57978057899999],[-58.19952011100003,-35.52187347400002],[-58.20404052700002,-35.518180846999996],[-58.15261840800002,-35.47265625],[-58.19493865999999,-35.440574646000016],[-58.15494155900001,-35.40827560399998],[-58.13986969000001,-35.419399261000024],[-58.04580688499999,-35.33425903300002],[-58.044864655000026,-35.336463928],[-58.03996658300002,-35.33962249799998],[-58.03952789300001,-35.341674805000025],[-58.03528595,-35.34449768100001],[-58.03549957299998,-35.34715270999999],[-58.030517578,-35.349014281999985],[-58.029037475999985,-35.35151672400002],[-58.025512694999975,-35.353439331000004],[-58.02302551299999,-35.35051345800002],[-58.013111115000015,-35.346057891999976],[-58.00784301800002,-35.34501266500001],[-58.009098053,-35.34284591699998],[-58.00140380900001,-35.33238220200002],[-57.992717743000014,-35.331638336000026],[-57.98633575399998,-35.32772827100001],[-57.98507690399998,-35.327880859000004],[-57.98485565200002,-35.330207825]]]}},{"type":"Feature","properties":{"nombre":"Castelli"},"geometry":{"type":"Polygon","coordinates":[[[-57.291331247000016,-36.137919318],[-57.28680419900002,-36.13580322299998],[-57.27740478499999,-36.13830566399997],[-57.273010253999985,-36.136108397999976],[-57.270996094,-36.13708496100003],[-57.272827147999976,-36.135498047],[-57.27081298799999,-36.134887694999975],[-57.268188477000024,-36.136596680000025],[-57.261474609000004,-36.14349365200002],[-57.257019043000014,-36.150878906],[-57.255981444999975,-36.150390625],[-57.25360107400002,-36.153503418000014],[-57.253295897999976,-36.160583496000015],[-57.250610352000024,-36.156494140999996],[-57.243896484000004,-36.162719727000024],[-57.240112305000025,-36.169799805000025],[-57.23919677700002,-36.169311522999976],[-57.232299805000025,-36.17510986299999],[-57.236206055000025,-36.18341064499998],[-57.23562948699998,-36.18416598499999],[-57.229309081999986,-36.180175781],[-57.22711181599999,-36.17999267599998],[-57.21978759799998,-36.186706543000014],[-57.220275878999985,-36.191284180000025],[-57.218505859000004,-36.190795897999976],[-57.217590331999986,-36.188598633000026],[-57.216186522999976,-36.18908691399997],[-57.20666909099998,-36.198421241000005],[-57.53105163599997,-36.135135650999985],[-57.528903961000026,-36.12808216399998],[-57.64523315399998,-36.107482799000024],[-57.651412963999974,-36.13047397999998],[-57.649032593000015,-36.13105381399998],[-57.655056,-36.153568156999995],[-57.657474518000015,-36.153297312999996],[-57.67173004199998,-36.203010447999986],[-57.75054550200002,-36.186061747999986],[-57.78468704199997,-36.177501568000025],[-57.815853118999996,-36.27883518599998],[-57.87233352700002,-36.267261394],[-57.883781433000024,-36.30220402100002],[-57.96502685500002,-36.27003467899999],[-57.972732543999996,-36.263652691000004],[-57.960437775,-36.25271976800002],[-58.09346389799998,-36.15456760799998],[-58.052562713999976,-36.11810673100001],[-58.04123306299999,-36.126312144999986],[-57.966873168999996,-36.06477344899997],[-58.005023956,-36.041881450000005],[-57.99876403799999,-36.034362681999994],[-57.99246597299998,-36.02926624600002],[-57.990032196000016,-36.02290333100001],[-57.986564636000026,-36.019607432999976],[-57.98316192599998,-36.021663554999975],[-57.983173369999975,-36.02337635399999],[-57.98594665500002,-36.025085338],[-57.98427963300003,-36.02843464199998],[-57.9739151,-36.031207927000025],[-57.967884063999975,-36.02720631],[-57.95931243899997,-36.029109844000004],[-57.95463943499999,-36.025077709000016],[-57.95156097400002,-36.018260844999986],[-57.94500350999999,-36.00959766699998],[-57.94309616100003,-35.99772632899999],[-57.93972778300002,-35.99268330000001],[-57.936477661000026,-35.99070728700002],[-57.928535461000024,-35.989131816999986],[-57.918212890999996,-35.99178303100001],[-57.91280365,-35.99135196999998],[-57.908088684000006,-35.986358532],[-57.904476165999995,-35.973991282999975],[-57.89815902700002,-35.97319019700001],[-57.89285278300002,-35.97563160300001],[-57.869670868000014,-35.968715556999996],[-57.86369705200002,-35.965286144000004],[-57.84433364900002,-35.960895427000025],[-57.84119033799999,-35.958064922000005],[-57.836475371999995,-35.947021372999984],[-57.83287429799998,-35.943569072],[-57.79970550500002,-35.93475712200001],[-57.79103088400001,-35.93396366500002],[-57.778511046999995,-35.935432322999986],[-57.774120331000006,-35.934467204999976],[-57.76818466200001,-35.92535770799998],[-57.763244628999985,-35.922088512000016],[-57.756900787000006,-35.921481975000006],[-57.73585128799999,-35.925601847999985],[-57.727180481000005,-35.91985309900002],[-57.724376678,-35.91703022399997],[-57.723518372,-35.91231525799998],[-57.724971771000014,-35.90919865000001],[-57.73063278199999,-35.904540904999976],[-57.733474731,-35.89701069199998],[-57.72895431500001,-35.886440166],[-57.723857880000025,-35.88198841399998],[-57.72220993000002,-35.87816227299999],[-57.71336746200001,-35.87272251500002],[-57.71347808799999,-35.864261516],[-57.71184539799998,-35.85654438400002],[-57.713531493999994,-35.842040904999976],[-57.71195602400002,-35.83686435999999],[-57.707725525,-35.832481272999985],[-57.70509338400001,-35.832416422999984],[-57.70140075699999,-35.835216410999976],[-57.69394683799999,-35.83558643700002],[-57.686935425,-35.831786997999984],[-57.681846619,-35.83162678100001],[-57.67409133899997,-35.83796299300002],[-57.66342544600002,-35.842677959000014],[-57.66233062700002,-35.845760235],[-57.65702819799998,-35.85024250399999],[-57.65362167400002,-35.848201641],[-57.65339279199998,-35.84153355000001],[-57.65216064499998,-35.83898533199999],[-57.648384093999994,-35.83692158100001],[-57.63760375999999,-35.83692158100001],[-57.623638153,-35.832378275999986],[-57.61358261100003,-35.83328617400002],[-57.606407166,-35.83111942599999],[-57.60318756100003,-35.83227146500002],[-57.587718963999976,-35.830863841999985],[-57.579372406000005,-35.836841472],[-57.57978439300001,-35.839687235999975],[-57.57687377899998,-35.84395206800002],[-57.57725524900002,-35.847644694999985],[-57.573657990000015,-35.855911144000004],[-57.567134856999985,-35.85694492699997],[-57.56238937400002,-35.854728588],[-57.56128311200001,-35.851337322000006],[-57.555202484000006,-35.844135172999984],[-57.550357819,-35.844081768000024],[-57.54629135099998,-35.84736240699999],[-57.53103256200001,-35.84260929499999],[-57.52492523199999,-35.83794010499997],[-57.52394104000001,-35.82995975799997],[-57.51655960099998,-35.829723247000004],[-57.51250076299999,-35.82497013400001],[-57.50621032700002,-35.824054606999994],[-57.49908447299998,-35.82751453700001],[-57.49023867699998,-35.82585172400002],[-57.492431640999996,-35.822086222999985],[-57.492046356,-35.814330944000005],[-57.48997116100003,-35.811435588999984],[-57.48495101899999,-35.809131510999975],[-57.480266571000016,-35.80171955499998],[-57.47774124099999,-35.79988086999998],[-57.47779083299997,-35.79856861500002],[-57.48200607299998,-35.797393688],[-57.48269653300002,-35.79479206399998],[-57.480411530000026,-35.792625316],[-57.480026244999976,-35.789745219999986],[-57.47635269199998,-35.78833759700001],[-57.476169586000026,-35.78320301399998],[-57.46865463300003,-35.780734904999974],[-57.467350006000004,-35.785507091],[-57.465782166,-35.78672397999998],[-57.45937347400002,-35.783622631000014],[-57.45809173599997,-35.78488148100001],[-57.46110153199999,-35.78802860600001],[-57.45835113499999,-35.788978466],[-57.45652008100001,-35.78765858000003],[-57.45462417599998,-35.78262317999997],[-57.45887756299999,-35.78208149300002],[-57.46033096299999,-35.77949131399998],[-57.45529556299999,-35.77698124300002],[-57.44983291599999,-35.780609019999986],[-57.44701385500002,-35.777564891],[-57.44490432700002,-35.77745426500002],[-57.44254684399999,-35.77884281500002],[-57.44142150900001,-35.782794841],[-57.43655776999998,-35.782688029999974],[-57.433555603,-35.78505314199998],[-57.43131256100003,-35.78479374300002],[-57.43056869499998,-35.78122318599998],[-57.428733825999984,-35.780616649000024],[-57.42837142899998,-35.784507641000005],[-57.42538070699999,-35.78483189000002],[-57.424354553,-35.78298557599999],[-57.425098418999994,-35.77990330099999],[-57.428871155000024,-35.77797306399998],[-57.42881011999998,-35.77622593299998],[-57.424320221000016,-35.77568805999999],[-57.41799163799999,-35.77005375300001],[-57.416915894,-35.764186747999986],[-57.41407775900001,-35.764545329999976],[-57.411617278999984,-35.76965320900001],[-57.40822601299999,-35.76900852599999],[-57.409988403,-35.76457966200002],[-57.409038544,-35.758884319],[-57.40399551399997,-35.75895298400002],[-57.40252685500002,-35.75773228000003],[-57.402587890999996,-35.75590885499997],[-57.40717697100001,-35.752818950000005],[-57.40822601299999,-35.74995029799999],[-57.41060256999998,-35.74815357599999],[-57.411087036000026,-35.745456585],[-57.409584044999974,-35.742797741000004],[-57.405620575,-35.74241245600001],[-57.402355193999995,-35.74520100000001],[-57.399818419999974,-35.745532878999995],[-57.39676284799998,-35.74298084600002],[-57.39776611299999,-35.73813999499998],[-57.387359618999994,-35.73682773899998],[-57.38489150999999,-35.738056072000006],[-57.38584136999998,-35.742133982999974],[-57.38430023199999,-35.744861491999984],[-57.367649078,-35.7460289],[-57.364662169999974,-35.74366378799999],[-57.362128688999974,-35.74381275500002],[-57.363708496000015,-35.746520996000015],[-57.361206055000025,-35.748779297],[-57.361083984000004,-35.750488281],[-57.368286133000026,-35.77960205099998],[-57.36859130900001,-35.790283203],[-57.37469482400002,-35.797729491999974],[-57.377685547,-35.808105469],[-57.37591552700002,-35.812011719],[-57.378112793000014,-35.822021484000004],[-57.383605956999986,-35.829589844],[-57.384277344,-35.83392334000001],[-57.38317871100003,-35.83929443400001],[-57.385986328,-35.86309814499998],[-57.38470459000001,-35.872619628999985],[-57.38458251999998,-35.907409668000014],[-57.38262939499998,-35.911315918000014],[-57.379882812999995,-35.926391602000024],[-57.378112793000014,-35.92840576200001],[-57.375610352000024,-35.93609619099999],[-57.37359619099999,-35.948791503999985],[-57.36920165999999,-35.95050048799999],[-57.369628906,-35.95452880900001],[-57.374511719,-35.959228515999996],[-57.36950683600003,-35.976806640999996],[-57.367614746000015,-35.97821044900002],[-57.363403319999975,-35.98699951200001],[-57.36077880900001,-35.996826172],[-57.35552978499999,-36.009277344],[-57.354309081999986,-36.009887694999975],[-57.356079102000024,-36.01141357400002],[-57.34997558600003,-36.018005371000015],[-57.349487305000025,-36.02081298799999],[-57.354675293000014,-36.02020263700001],[-57.35211181599999,-36.02252197299998],[-57.35089111299999,-36.028198241999974],[-57.34710693400001,-36.02740478499999],[-57.343505859000004,-36.029418944999975],[-57.338684081999986,-36.03942871100003],[-57.33990478499999,-36.04302978499999],[-57.338684081999986,-36.041809081999986],[-57.33599853499999,-36.043395996000015],[-57.33489990200002,-36.050292969],[-57.33361816399997,-36.043212890999996],[-57.332275390999996,-36.043823241999974],[-57.32879638700001,-36.053588866999974],[-57.329284668000014,-36.055908203],[-57.325683594,-36.05859375],[-57.32489013700001,-36.06091308600003],[-57.32330322299998,-36.05999755900001],[-57.31890869099999,-36.065429687999995],[-57.32067871100003,-36.064880371000015],[-57.318115234000004,-36.06927490200002],[-57.318481444999975,-36.07159423799999],[-57.31671142599998,-36.07122802700002],[-57.312377930000025,-36.07830810500002],[-57.31158447299998,-36.077697753999985],[-57.310302734000004,-36.078918456999986],[-57.309082031,-36.08392334000001],[-57.3046875,-36.08947753899997],[-57.30340576200001,-36.09478759799998],[-57.30572509799998,-36.09729003899997],[-57.305419922,-36.098999022999976],[-57.30767822299998,-36.103088378999985],[-57.302490234000004,-36.098388672],[-57.302001953,-36.09637451200001],[-57.29620361299999,-36.10137939499998],[-57.294189453,-36.100585937999995],[-57.29229736299999,-36.106994628999985],[-57.28118896500001,-36.12481689499998],[-57.28088378899997,-36.12701415999999],[-57.283081055000025,-36.127807616999974],[-57.28118896500001,-36.128479003999985],[-57.280822753999985,-36.134887694999975],[-57.28851318400001,-36.13458251999998],[-57.290588378999985,-36.135192871000015],[-57.291331247000016,-36.137919318]]]}},{"type":"Feature","properties":{"nombre":"Punta Indio"},"geometry":{"type":"Polygon","coordinates":[[[-57.24859619099999,-35.24841308600003],[-57.225708008000026,-35.27111816399997],[-57.219726562999995,-35.282775878999985],[-57.217224121000015,-35.284423828],[-57.215698241999974,-35.29010009799998],[-57.212402344,-35.29138183600003],[-57.20739746100003,-35.296997069999975],[-57.196777344,-35.312622069999975],[-57.19000244099999,-35.325012206999986],[-57.18609619099999,-35.335510253999985],[-57.178894043000014,-35.34771728499999],[-57.174682616999974,-35.35162353499999],[-57.173583984000004,-35.354980469],[-57.165893555000025,-35.36578369099999],[-57.159912109000004,-35.370483397999976],[-57.15948486299999,-35.373291015999996],[-57.146911621000015,-35.389404297],[-57.146911621000015,-35.392578125],[-57.14398193400001,-35.398925781],[-57.14221191399997,-35.40008544900002],[-57.132690430000025,-35.419494628999985],[-57.13018798799999,-35.42218017599998],[-57.12890625,-35.440185547],[-57.12731933600003,-35.444702147999976],[-57.14031982400002,-35.469909668000014],[-57.141479491999974,-35.47650146500001],[-57.145385741999974,-35.48040771500001],[-57.153198241999974,-35.494995116999974],[-57.161315918000014,-35.50158691399997],[-57.17810058600003,-35.520019531],[-57.182495116999974,-35.522705078],[-57.190795897999976,-35.53338623000002],[-57.214111328,-35.555114746000015],[-57.237487793000014,-35.58038330099998],[-57.23760986299999,-35.583496094],[-57.242309569999975,-35.58648681599999],[-57.25128173799999,-35.59710693400001],[-57.258789062999995,-35.60931396500001],[-57.276611328,-35.63177490200002],[-57.285583496000015,-35.645385741999974],[-57.29071044900002,-35.650512694999975],[-57.32458496100003,-35.694824219],[-57.331909180000025,-35.701293944999975],[-57.340698241999974,-35.712890625],[-57.34720311199999,-35.71657207800001],[-57.356201172,-35.712402344],[-57.358047484999986,-35.710178375],[-57.36413192700002,-35.70866775500002],[-57.36694717400002,-35.712097168000014],[-57.37084579499998,-35.71038818400001],[-57.372787475999985,-35.712947844999974],[-57.374996184999986,-35.709976196000014],[-57.377555846999996,-35.71328735399999],[-57.38173675500002,-35.71247100800002],[-57.38163375900001,-35.710933684999986],[-57.37882232700002,-35.708816528],[-57.380569458000025,-35.70664978000002],[-57.380599975999985,-35.70389938400001],[-57.377952575999984,-35.70184326200001],[-57.38011932400002,-35.699691771999994],[-57.38035965,-35.697093963999976],[-57.38356018100001,-35.695865631000004],[-57.38352203400001,-35.69445419300001],[-57.37874603300003,-35.694026947],[-57.38131332400002,-35.69168090800002],[-57.38037490800002,-35.689250946000016],[-57.37840270999999,-35.68904495200002],[-57.377346038999974,-35.691200256],[-57.374897003,-35.69090270999999],[-57.37664794900002,-35.687725066999974],[-57.37507247899998,-35.6860466],[-57.372390747,-35.68807983400001],[-57.370269775,-35.687503815000014],[-57.37018966699998,-35.68586730999999],[-57.37348556500001,-35.68550109900002],[-57.37481689499998,-35.68294143700001],[-57.370632172,-35.683567047],[-57.37098312400002,-35.680908203],[-57.36894989000001,-35.680011749000016],[-57.370296478,-35.67839431800002],[-57.366928100999985,-35.677272797],[-57.37541580200002,-35.67425918599997],[-57.37711334199997,-35.675689696999996],[-57.373554230000025,-35.676734924000016],[-57.37459945699999,-35.67947387700002],[-57.37634658799999,-35.67924118000002],[-57.378959656000006,-35.676006316999974],[-57.38000869799998,-35.67674636800001],[-57.37895584099999,-35.677928925],[-57.38078689600002,-35.67935562100001],[-57.38507843000002,-35.67927932700002],[-57.38351440399998,-35.67564392100002],[-57.386684418000016,-35.67724990800002],[-57.38817596400003,-35.6746521],[-57.386020659999986,-35.673370361000025],[-57.387836456,-35.67022323600003],[-57.39414215099998,-35.672729491999974],[-57.395923615000015,-35.671337128000005],[-57.39482879600001,-35.669910431000005],[-57.39567184399999,-35.667526244999976],[-57.39928436299999,-35.666172028000005],[-57.402202606,-35.666954041],[-57.40123748799999,-35.665222168000014],[-57.403835297,-35.664936065999996],[-57.40343856800001,-35.663028716999975],[-57.40518188499999,-35.66242218000002],[-57.40810775800003,-35.66517257700002],[-57.41110610999999,-35.66460418700001],[-57.411022186000025,-35.65823364300002],[-57.414825439000026,-35.659473418999994],[-57.418689728000004,-35.654758453],[-57.418205261000026,-35.652946471999996],[-57.41631698600003,-35.653526306],[-57.413406372,-35.651302337999994],[-57.416744231999985,-35.645030975],[-57.42469787599998,-35.643066406],[-57.427753447999976,-35.64453125],[-57.439338684000006,-35.637447356999985],[-57.439479828,-35.63243865999999],[-57.437137603999986,-35.62369918799999],[-57.435089111000025,-35.62380218499999],[-57.433799744,-35.62614822400002],[-57.42907333400001,-35.625267028999986],[-57.429801940999994,-35.62126922599998],[-57.426845550999985,-35.616695403999984],[-57.42742156999998,-35.61559295699999],[-57.44815063499999,-35.609760284000004],[-57.44963836699998,-35.60472869900002],[-57.453227997,-35.601985931],[-57.45374679600002,-35.599540709999985],[-57.45980835,-35.598354340000014],[-57.463859558000024,-35.594703674000016],[-57.46594619799998,-35.58909606899999],[-57.46269989000001,-35.58530425999999],[-57.45973968499999,-35.58691024799998],[-57.458255768000015,-35.585700988999974],[-57.45450210600001,-35.57796096800001],[-57.456134796000015,-35.56977081299999],[-57.453010559000006,-35.56552124000001],[-57.452468872,-35.56180954000001],[-57.453910828000005,-35.56009292599998],[-57.45814514199998,-35.55997085600001],[-57.45943832400002,-35.55760574300001],[-57.45692443799999,-35.55427551299999],[-57.45072555500002,-35.55339431800002],[-57.45334243799999,-35.549728394],[-57.45479202299998,-35.543800353999984],[-57.44673156699997,-35.538532256999986],[-57.44713974000001,-35.53136062599998],[-57.442459106,-35.530029297],[-57.44509887700002,-35.52466583299997],[-57.441181183000026,-35.52453231800001],[-57.44038772599998,-35.52295684799998],[-57.436889647999976,-35.52188491800001],[-57.43557739300002,-35.51877594000001],[-57.43787384000001,-35.511962890999996],[-57.44093704199997,-35.510055541999975],[-57.444644928,-35.51014328000002],[-57.450420380000025,-35.50518798799999],[-57.45397186299999,-35.50384521500001],[-57.462722778,-35.50396728499999],[-57.47028350800002,-35.500553131000004],[-57.468570709000005,-35.49783706699998],[-57.462280272999976,-35.495002747],[-57.462467194,-35.493309021000016],[-57.466617584000005,-35.49057769799998],[-57.481445312999995,-35.48757934600002],[-57.48160934399999,-35.48637008700001],[-57.47766876200001,-35.483573913999976],[-57.48230361899999,-35.47991943400001],[-57.48222351099997,-35.47205734300002],[-57.48670578000002,-35.47219085699999],[-57.48863220200002,-35.46946334799998],[-57.48625564600002,-35.463756561000025],[-57.487857819,-35.460933684999986],[-57.48892593400001,-35.461437225],[-57.48926162700002,-35.46461486800001],[-57.49174880999999,-35.46644592299998],[-57.492046356,-35.47005081200001],[-57.49488067599998,-35.472286224000015],[-57.49730682400002,-35.471233368000014],[-57.49768829300001,-35.46816635099998],[-57.501831055000025,-35.466640471999995],[-57.50738143900003,-35.467998505000025],[-57.511615753,-35.466983794999976],[-57.51404953000002,-35.46915054300001],[-57.520038605000025,-35.471073150999985],[-57.52196502700002,-35.47356414799998],[-57.52415466299999,-35.47124862700002],[-57.527084350999985,-35.47063064600002],[-57.543579102000024,-35.47135162400002],[-57.54707336400003,-35.46942138700001],[-57.547828674000016,-35.467632294],[-57.551773071000014,-35.46942520099998],[-57.55261611899999,-35.46791076699998],[-57.550510406,-35.46429443400001],[-57.55101013199999,-35.46200561500001],[-57.557895659999986,-35.455978394],[-57.56282043499999,-35.457519531],[-57.577594756999986,-35.457839965999995],[-57.58109664900002,-35.45928192100001],[-57.584369659000004,-35.45823669399999],[-57.58561706500001,-35.455974578999985],[-57.59270477299998,-35.45658493000002],[-57.594615936000025,-35.45959854099999],[-57.60177612299998,-35.46039581299999],[-57.609149933000026,-35.458614349000015],[-57.60985565200002,-35.461730956999986],[-57.61868667599998,-35.463989258000026],[-57.62366104099999,-35.46845626800001],[-57.63300323499999,-35.470195769999975],[-57.643329619999975,-35.466758728],[-57.649291991999974,-35.466762543000016],[-57.657848358000024,-35.46168136599999],[-57.66331863400001,-35.46374130200002],[-57.672046661000024,-35.46361541700003],[-57.678249359000006,-35.471744537000006],[-57.68173599199997,-35.481033325],[-57.68877410900001,-35.484561919999976],[-57.70725250200002,-35.48060607899998],[-57.711601256999984,-35.478416443000015],[-57.713180541999975,-35.47970199600002],[-57.719604491999974,-35.48046875],[-57.72423553499999,-35.47877120999999],[-57.72755050699999,-35.47588729900002],[-57.732479094999974,-35.47644424399999],[-57.73664093000002,-35.47382736200001],[-57.746528624999996,-35.47366714499998],[-57.74720001200001,-35.47253036500001],[-57.74399566699998,-35.468158722],[-57.74869918799999,-35.46630096400003],[-57.75179290800003,-35.462207793999994],[-57.756092072,-35.45963668799999],[-57.76128005999999,-35.462879181000005],[-57.766880034999986,-35.463378906],[-57.766704559000004,-35.460670471000014],[-57.76980590800002,-35.460327147999976],[-57.769989013999975,-35.459114075],[-57.76967620800002,-35.456859588999976],[-57.768005371000015,-35.45578002899998],[-57.769687653000005,-35.452617644999975],[-57.76922225999999,-35.44494628899997],[-57.76789093000002,-35.44263458299997],[-57.773250580000024,-35.43887329099999],[-57.781455994,-35.43984222400002],[-57.78235244799998,-35.44172668499999],[-57.792274475,-35.44536209099999],[-57.797317505000024,-35.44503784199998],[-57.792007446000014,-35.43660736099997],[-57.75977325399998,-35.404682159000004],[-57.74639129600001,-35.37452316299999],[-57.72772598300003,-35.34890747100002],[-57.71963500999999,-35.354675293000014],[-57.71719741800001,-35.35216903700001],[-57.68346023599997,-35.37651443499999],[-57.671878815000014,-35.36612701400003],[-57.682044983000026,-35.358322144],[-57.664859772,-35.34282684300001],[-57.654365540000015,-35.35054397599998],[-57.651374816999976,-35.34785461400003],[-57.64098358199999,-35.35565948499999],[-57.62657928499999,-35.34311675999999],[-57.624942780000026,-35.34425354000001],[-57.613636016999976,-35.33336257899998],[-57.63244628899997,-35.319561005000025],[-57.63803863499999,-35.324581146000014],[-57.641712188999975,-35.32194900500002],[-57.636165618999996,-35.31683731099997],[-57.6680336,-35.293598175],[-57.634193419999974,-35.260787963999974],[-57.626255034999986,-35.26506805399998],[-57.60469436599999,-35.268642425999985],[-57.60967254600001,-35.27344512899998],[-57.58489990200002,-35.29772186299999],[-57.59113693199998,-35.32490539600002],[-57.60263443000002,-35.36180877700002],[-57.58934783900003,-35.350425719999976],[-57.57228088400001,-35.363483428999984],[-57.503341675,-35.30141830399998],[-57.54423522899998,-35.299804687000005],[-57.549812316999976,-35.296077728],[-57.49386215200002,-35.243141174000016],[-57.46081924399999,-35.26657104499998],[-57.42679977400002,-35.234386443999995],[-57.40413284300001,-35.25024032599998],[-57.302867384000024,-35.19754193],[-57.287109375,-35.212280272999976],[-57.27471923799999,-35.227416991999974],[-57.24859619099999,-35.24841308600003]]]}}]}